[{"OBJECT_NAME":"SPIP","OBJECT_ID":"2023-174AU","EPOCH":"2026-03-09T22:52:46.383168","MEAN_MOTION":15.26695413,"ECCENTRICITY":0.00100427,"INCLINATION":97.3901,"RA_OF_ASC_NODE":146.4534,"ARG_OF_PERICENTER":168.1112,"MEAN_ANOMALY":192.0366,"EPHEMERIS_TYPE":0,"CLASSIFICATION_TYPE":"U","NORAD_CAT_ID":58298,"ELEMENT_SET_NO":999,"REV_AT_EPOCH":12963,"BSTAR":0.00025731582,"MEAN_MOTION_DOT":6.692e-5,"MEAN_MOTION_DDOT":0},{"OBJECT_NAME":"STARLINK-31340","OBJECT_ID":"2024-044U","EPOCH":"2026-03-09T04:05:32.623872","MEAN_MOTION":15.27572437,"ECCENTRICITY":9.712e-5,"INCLINATION":43.0023,"RA_OF_ASC_NODE":70.4062,"ARG_OF_PERICENTER":214.2306,"MEAN_ANOMALY":145.8483,"EPHEMERIS_TYPE":0,"CLASSIFICATION_TYPE":"U","NORAD_CAT_ID":59170,"ELEMENT_SET_NO":999,"REV_AT_EPOCH":11394,"BSTAR":-1.8164612e-5,"MEAN_MOTION_DOT":-7.62e-6,"MEAN_MOTION_DDOT":0}]
